[{"OBJECT_NAME":"PHISAT 2","OBJECT_ID":"2024-149C","EPOCH":"2026-03-09T18:55:12.732384","MEAN_MOTION":15.29548632,"ECCENTRICITY":0.00011753,"INCLINATION":97.3806,"RA_OF_ASC_NODE":148.6498,"ARG_OF_PERICENTER":168.623,"MEAN_ANOMALY":191.5037,"EPHEMERIS_TYPE":0,"CLASSIFICATION_TYPE":"U","NORAD_CAT_ID":60470,"ELEMENT_SET_NO":999,"REV_AT_EPOCH":8679,"BSTAR":0.00031420974,"MEAN_MOTION_DOT":8.925e-5,"MEAN_MOTION_DDOT":0},{"OBJECT_NAME":"STARLINK-35878","OBJECT_ID":"2025-303R","EPOCH":"2026-03-09T00:33:41.453280","MEAN_MOTION":15.27598188,"ECCENTRICITY":0.00029159,"INCLINATION":43.002,"RA_OF_ASC_NODE":314.44,"ARG_OF_PERICENTER":246.4167,"MEAN_ANOMALY":113.6378,"EPHEMERIS_TYPE":0,"CLASSIFICATION_TYPE":"U","NORAD_CAT_ID":67178,"ELEMENT_SET_NO":999,"REV_AT_EPOCH":1263,"BSTAR":0.0012258242,"MEAN_MOTION_DOT":0.00033645,"MEAN_MOTION_DDOT":0}]
